STARLINK-5303           
1 55630U 23021C   26068.80262972  .00000032  00000+0  10498-4 0  9995
2 55630  70.0006 204.2304 0003064 269.6598  90.4210 14.98330043168317
SATELIOT_3              
1 60552U 24149CN  26068.79802274  .00002865  00000+0  25003-3 0  9992
2 60552  97.6866 147.0596 0005831  63.3535 296.8284 14.97601684 85206
